     2.100          NAVIGATION                              RINEX VERSION / TYPE
fic2rin                                 05/08/2011 00:05:20 PGM / RUN BY / DATE
                                                            END OF HEADER
 7 11  5  7 23 59 44.0  .103162601590D-04  .113686837722D-11  .000000000000D+00
     .300000000000D+01 -.356250000000D+02  .449697303126D-08 -.152119975539D+01
    -.197999179363D-05  .436286698096D-02  .231340527534D-05  .515366088867D+04
     .604784000000D+06  .745058059692D-08  .265574980893D+01 -.465661287308D-07
     .974484441794D+00  .342406250000D+03 -.312773623733D+01 -.830427447779D-08
     .246438836595D-10  .100000000000D+01  .163400000000D+04  .000000000000D+00
     .240000000000D+01  .000000000000D+00 -.107102096081D-07  .300000000000D+01
     .601236000000D+06  .400000000000D+01
